{
  "norad_id": 45429,
  "name": "ONEWEB-0081",
  "history": [
    {
      "epoch": "2026-03-28T21:15:40.034592Z",
      "apogee_km": 1219.0266791808044,
      "perigee_km": 1216.3514292445107,
      "latitude_deg": 7.248943522093079e-05,
      "longitude_deg": -108.1880072644234,
      "height_km": 1220.4924065349624,
      "semi_major_axis_km": 7595.826054212657,
      "eccentricity": 0.0001761,
      "inclination_deg": 87.8896,
      "raan_deg": 37.0287,
      "arg_perigee_deg": 86.447,
      "mean_anomaly_deg": 273.686,
      "mean_motion_rev_day": 13.11415299
    }
  ]
}