{"fetched_at":"2026-03-29T16:36:15Z","count":15609,"tles":[{"name":"ONEWEB-0081","line1":"1 45429U 20020F   26087.88588003 -.00000466  00000+0 -13516-2 0  9996","line2":"2 45429  87.8896  37.0287 0001761  86.4470 273.6860 13.11415299292217","category":"Other"}]}